start=new Date('2023-04-23T00:00:00.000Z').valueOf();
sats=[{"OBJECT_ID":"2022-053A","RCS_SIZE":"LARGE","MEAN_MOTION_DDOT":"0.0000000000000","RA_OF_ASC_NODE":"196.8368","EPOCH":"2023-04-22T15:59:37.126752","PERIAPSIS":"538.978","APOAPSIS":"540.311","TIME_SYSTEM":"UTC","BSTAR":"0.00124710000000","SITE":"AFETR","MEAN_ELEMENT_THEORY":"SGP4","MEAN_ANOMALY":"275.1733","ARG_OF_PERICENTER":"84.9369","CLASSIFICATION_TYPE":"U","ECCENTRICITY":"0.00009630","INCLINATION":"53.2147","DECAY_DATE":null,"NORAD_CAT_ID":"52656","REF_FRAME":"TEME","GP_ID":"230596439","TLE_LINE2":"2 52656  53.2147 196.8368 0000963  84.9369 275.1733 15.08872966 52294","REV_AT_EPOCH":"5229","EPHEMERIS_TYPE":"0","FILE":"3892285","PERIOD":"95.435","MEAN_MOTION_DOT":"0.00019633","COUNTRY_CODE":"US","MEAN_MOTION":"15.08872966","LAUNCH_DATE":"2022-05-18","CENTER_NAME":"EARTH","OBJECT_TYPE":"PAYLOAD","ELEMENT_SET_NO":"999","OBJECT_NAME":"STARLINK-4004","TLE_LINE1":"1 52656U 22053A   23112.66640193  .00019633  00000-0  12471-2 0  9999","SEMIMAJOR_AXIS":"6917.780"},{"BSTAR":"0.00029451000000","SITE":"AFETR","MEAN_ANOMALY":"296.0630","MEAN_ELEMENT_THEORY":"SGP4","ARG_OF_PERICENTER":"64.0497","CLASSIFICATION_TYPE":"U","ECCENTRICITY":"0.00013100","DECAY_DATE":null,"NORAD_CAT_ID":"52657","INCLINATION":"53.2135","OBJECT_ID":"2022-053B","MEAN_MOTION_DDOT":"0.0000000000000","RCS_SIZE":"LARGE","PERIAPSIS":"538.799","RA_OF_ASC_NODE":"197.1034","EPOCH":"2023-04-22T14:34:50.146176","APOAPSIS":"540.612","TIME_SYSTEM":"UTC","LAUNCH_DATE":"2022-05-18","CENTER_NAME":"EARTH","OBJECT_TYPE":"PAYLOAD","ELEMENT_SET_NO":"999","OBJECT_NAME":"STARLINK-4084","TLE_LINE1":"1 52657U 22053B   23112.60752484  .00004404  00000-0  29451-3 0  9998","SEMIMAJOR_AXIS":"6917.841","REF_FRAME":"TEME","GP_ID":"230595188","TLE_LINE2":"2 52657  53.2135 197.1034 0001310  64.0497 296.0630 15.08853047 52583","REV_AT_EPOCH":"5258","EPHEMERIS_TYPE":"0","FILE":"3892285","COUNTRY_CODE":"US","PERIOD":"95.437","MEAN_MOTION_DOT":"0.00004404","MEAN_MOTION":"15.08853047"},{"MEAN_ELEMENT_THEORY":"SGP4","MEAN_ANOMALY":"276.2002","BSTAR":"-0.00001958400000","SITE":"AFETR","ARG_OF_PERICENTER":"83.9106","CLASSIFICATION_TYPE":"U","NORAD_CAT_ID":"52658","DECAY_DATE":null,"INCLINATION":"53.2161","ECCENTRICITY":"0.00010130","RCS_SIZE":"LARGE","MEAN_MOTION_DDOT":"0.0000000000000","OBJECT_ID":"2022-053C","RA_OF_ASC_NODE":"197.1183","EPOCH":"2023-04-22T14:29:31.540128","PERIAPSIS":"538.989","APOAPSIS":"540.390","TIME_SYSTEM":"UTC","LAUNCH_DATE":"2022-05-18","CENTER_NAME":"EARTH","OBJECT_TYPE":"PAYLOAD","ELEMENT_SET_NO":"999","SEMIMAJOR_AXIS":"6917.825","TLE_LINE1":"1 52658U 22053C   23112.60383727 -.00000600  00000-0 -19584-4 0  9992","OBJECT_NAME":"STARLINK-4082","TLE_LINE2":"2 52658  53.2161 197.1183 0001013  83.9106 276.2002 15.08858271 52403","GP_ID":"230595437","REF_FRAME":"TEME","REV_AT_EPOCH":"5240","EPHEMERIS_TYPE":"0","MEAN_MOTION_DOT":"-0.00000600","PERIOD":"95.436","COUNTRY_CODE":"US","FILE":"3892285","MEAN_MOTION":"15.08858271"},{"ELEMENT_SET_NO":"999","TLE_LINE1":"1 52659U 22053D   23112.67103592  .00005035  00000-0  33401-3 0  9998","SEMIMAJOR_AXIS":"6917.823","OBJECT_NAME":"STARLINK-3960","CENTER_NAME":"EARTH","LAUNCH_DATE":"2022-05-18","OBJECT_TYPE":"PAYLOAD","PERIOD":"95.436","MEAN_MOTION_DOT":"0.00005035","COUNTRY_CODE":"US","FILE":"3892285","MEAN_MOTION":"15.08858617","TLE_LINE2":"2 52659  53.2147 196.8143 0001203  82.3198 277.7931 15.08858617 52406","GP_ID":"230596189","REF_FRAME":"TEME","REV_AT_EPOCH":"5240","EPHEMERIS_TYPE":"0","CLASSIFICATION_TYPE":"U","NORAD_CAT_ID":"52659","DECAY_DATE":null,"INCLINATION":"53.2147","ECCENTRICITY":"0.00012030","MEAN_ELEMENT_THEORY":"SGP4","MEAN_ANOMALY":"277.7931","SITE":"AFETR","BSTAR":"0.00033401000000","ARG_OF_PERICENTER":"82.3198","TIME_SYSTEM":"UTC","APOAPSIS":"540.521","RCS_SIZE":"LARGE","MEAN_MOTION_DDOT":"0.0000000000000","OBJECT_ID":"2022-053D","RA_OF_ASC_NODE":"196.8143","EPOCH":"2023-04-22T16:06:17.503488","PERIAPSIS":"538.856"},{"ARG_OF_PERICENTER":"96.2767","MEAN_ANOMALY":"263.8343","MEAN_ELEMENT_THEORY":"SGP4","SITE":"AFETR","BSTAR":"0.00023445000000","NORAD_CAT_ID":"52660","DECAY_DATE":null,"INCLINATION":"53.2158","ECCENTRICITY":"0.00010300","CLASSIFICATION_TYPE":"U","PERIAPSIS":"539.036","EPOCH":"2023-04-22T22:15:52.301088","RA_OF_ASC_NODE":"195.6651","MEAN_MOTION_DDOT":"0.0000000000000","RCS_SIZE":"LARGE","OBJECT_ID":"2022-053E","TIME_SYSTEM":"UTC","APOAPSIS":"540.461","OBJECT_TYPE":"PAYLOAD","CENTER_NAME":"EARTH","LAUNCH_DATE":"2022-05-18","TLE_LINE1":"1 52660U 22053E   23112.92768867  .00003445  00000-0  23445-3 0  9990","SEMIMAJOR_AXIS":"6917.884","OBJECT_NAME":"STARLINK-4081","ELEMENT_SET_NO":"999","REV_AT_EPOCH":"5233","EPHEMERIS_TYPE":"0","TLE_LINE2":"2 52660  53.2158 195.6651 0001030  96.2767 263.8343 15.08838853 52330","GP_ID":"230595940","REF_FRAME":"TEME","MEAN_MOTION":"15.08838853","COUNTRY_CODE":"US","MEAN_MOTION_DOT":"0.00003445","PERIOD":"95.438","FILE":"3892285"},{"ARG_OF_PERICENTER":"91.2735","MEAN_ELEMENT_THEORY":"SGP4","MEAN_ANOMALY":"268.8416","SITE":"AFETR","BSTAR":"-0.00000981370000","DECAY_DATE":null,"NORAD_CAT_ID":"52661","INCLINATION":"53.2147","ECCENTRICITY":"0.00013880","CLASSIFICATION_TYPE":"U","EPOCH":"2023-04-22T22:10:34.452768","RA_OF_ASC_NODE":"195.6819","PERIAPSIS":"538.804","RCS_SIZE":"LARGE","MEAN_MOTION_DDOT":"0.0000000000000","OBJECT_ID":"2022-053F","TIME_SYSTEM":"UTC","APOAPSIS":"540.724","OBJECT_TYPE":"PAYLOAD","CENTER_NAME":"EARTH","LAUNCH_DATE":"2022-05-18","SEMIMAJOR_AXIS":"6917.899","TLE_LINE1":"1 52661U 22053F   23112.92400987 -.00000444  00000-0 -98137-5 0  9997","OBJECT_NAME":"STARLINK-4042","ELEMENT_SET_NO":"999","REV_AT_EPOCH":"5226","EPHEMERIS_TYPE":"0","TLE_LINE2":"2 52661  53.2147 195.6819 0001388  91.2735 268.8416 15.08834005 52264","GP_ID":"230594689","REF_FRAME":"TEME","MEAN_MOTION":"15.08834005","MEAN_MOTION_DOT":"-0.00000444","PERIOD":"95.438","COUNTRY_CODE":"US","FILE":"3892285"},{"EPOCH":"2023-04-22T15:38:25.729152","RA_OF_ASC_NODE":"196.9027","PERIAPSIS":"538.625","OBJECT_ID":"2022-053G","RCS_SIZE":"LARGE","MEAN_MOTION_DDOT":"0.0000000000000","APOAPSIS":"540.726","TIME_SYSTEM":"UTC","ARG_OF_PERICENTER":"69.9412","BSTAR":"0.00076929000000","SITE":"AFETR","MEAN_ELEMENT_THEORY":"SGP4","MEAN_ANOMALY":"290.1744","ECCENTRICITY":"0.00015190","DECAY_DATE":null,"INCLINATION":"53.2149","NORAD_CAT_ID":"52662","CLASSIFICATION_TYPE":"U","REV_AT_EPOCH":"5222","EPHEMERIS_TYPE":"0","REF_FRAME":"TEME","GP_ID":"230594939","TLE_LINE2":"2 52662  53.2149 196.9027 0001519  69.9412 290.1744 15.08862833 52220","MEAN_MOTION":"15.08862833","FILE":"3892285","MEAN_MOTION_DOT":"0.00011984","PERIOD":"95.436","COUNTRY_CODE":"US","OBJECT_TYPE":"PAYLOAD","LAUNCH_DATE":"2022-05-18","CENTER_NAME":"EARTH","OBJECT_NAME":"STARLINK-4044","SEMIMAJOR_AXIS":"6917.811","TLE_LINE1":"1 52662U 22053G   23112.65168668  .00011984  00000-0  76929-3 0  9997","ELEMENT_SET_NO":"999"},{"CLASSIFICATION_TYPE":"U","ECCENTRICITY":"0.00016980","INCLINATION":"53.2134","DECAY_DATE":null,"NORAD_CAT_ID":"52663","BSTAR":"0.00063414000000","SITE":"AFETR","MEAN_ANOMALY":"262.2384","MEAN_ELEMENT_THEORY":"SGP4","ARG_OF_PERICENTER":"97.8801","APOAPSIS":"540.860","TIME_SYSTEM":"UTC","OBJECT_ID":"2022-053H","MEAN_MOTION_DDOT":"0.0000000000000","RCS_SIZE":"LARGE","PERIAPSIS":"538.511","RA_OF_ASC_NODE":"196.6202","EPOCH":"2023-04-22T17:08:30.792192","ELEMENT_SET_NO":"999","OBJECT_NAME":"STARLINK-4037","TLE_LINE1":"1 52663U 22053H   23112.71424528  .00009824  00000-0  63414-3 0  9990","SEMIMAJOR_AXIS":"6917.821","CENTER_NAME":"EARTH","LAUNCH_DATE":"2022-05-18","OBJECT_TYPE":"PAYLOAD","FILE":"3892285","COUNTRY_CODE":"US","MEAN_MOTION_DOT":"0.00009824","PERIOD":"95.436","MEAN_MOTION":"15.08859568","REF_FRAME":"TEME","GP_ID":"230595690","TLE_LINE2":"2 52663  53.2134 196.6202 0001698  97.8801 262.2384 15.08859568 52239","REV_AT_EPOCH":"5223","EPHEMERIS_TYPE":"0"},{"OBJECT_TYPE":"PAYLOAD","CENTER_NAME":"EARTH","LAUNCH_DATE":"2022-05-18","OBJECT_NAME":"STARLINK-4070","SEMIMAJOR_AXIS":"6917.925","TLE_LINE1":"1 52664U 22053J   23112.92033301 -.00003665  00000-0 -21239-3 0  9997","ELEMENT_SET_NO":"999","EPHEMERIS_TYPE":"0","REV_AT_EPOCH":"5226","REF_FRAME":"TEME","GP_ID":"230596440","TLE_LINE2":"2 52664  53.2152 195.6942 0001044  89.1445 270.9667 15.08825349 52266","MEAN_MOTION":"15.08825349","FILE":"3892285","COUNTRY_CODE":"US","PERIOD":"95.438","MEAN_MOTION_DOT":"-0.00003665","ARG_OF_PERICENTER":"89.1445","BSTAR":"-0.00021239000000","SITE":"AFETR","MEAN_ANOMALY":"270.9667","MEAN_ELEMENT_THEORY":"SGP4","ECCENTRICITY":"0.00010440","NORAD_CAT_ID":"52664","DECAY_DATE":null,"INCLINATION":"53.2152","CLASSIFICATION_TYPE":"U","PERIAPSIS":"539.068","RA_OF_ASC_NODE":"195.6942","EPOCH":"2023-04-22T22:05:16.772064","OBJECT_ID":"2022-053J","MEAN_MOTION_DDOT":"0.0000000000000","RCS_SIZE":"LARGE","APOAPSIS":"540.512","TIME_SYSTEM":"UTC"},{"FILE":"3892285","PERIOD":"95.436","MEAN_MOTION_DOT":"0.00016586","COUNTRY_CODE":"US","MEAN_MOTION":"15.08868599","REF_FRAME":"TEME","TLE_LINE2":"2 52665  53.2146 196.9654 0001410  62.9037 297.2099 15.08868599 52228","GP_ID":"230595189","REV_AT_EPOCH":"5222","EPHEMERIS_TYPE":"0","ELEMENT_SET_NO":"999","OBJECT_NAME":"STARLINK-4064","SEMIMAJOR_AXIS":"6917.793","TLE_LINE1":"1 52665U 22053K   23112.63696601  .00016586  00000-0  10569-2 0  9991","LAUNCH_DATE":"2022-05-18","CENTER_NAME":"EARTH","OBJECT_TYPE":"PAYLOAD","TIME_SYSTEM":"UTC","APOAPSIS":"540.633","OBJECT_ID":"2022-053K","RCS_SIZE":"LARGE","MEAN_MOTION_DDOT":"0.0000000000000","EPOCH":"2023-04-22T15:17:13.863264","RA_OF_ASC_NODE":"196.9654","PERIAPSIS":"538.683","CLASSIFICATION_TYPE":"U","ECCENTRICITY":"0.00014100","DECAY_DATE":null,"INCLINATION":"53.2146","NORAD_CAT_ID":"52665","SITE":"AFETR","BSTAR":"0.00105690000000","MEAN_ELEMENT_THEORY":"SGP4","MEAN_ANOMALY":"297.2099","ARG_OF_PERICENTER":"62.9037"}];
